CZ-2D R/B               
1 28738U 05024B   25321.83970894  .00029945  00000+0  50501-3 0  9992
2 28738  97.3652 328.6645 0008153  76.6065 283.6096 15.51584847122392
ALOS (DAICHI)           
1 28931U 06002A   25321.84094558  .00002586  00000+0  44570-3 0  9990
2 28931  98.1049 273.5112 0000859  58.4790 301.6499 14.69377647 57055
H-2A R/B                
1 28932U 06002B   25321.80606700  .00011943  00000+0  63985-3 0  9993
2 28932  98.2298  94.5347 0054422 261.5541  97.9517 15.13891133 77497
RESURS-DK 1             
1 29228U 06021A   25321.82413720  .00003395  00000+0  20356-3 0  9990
2 29228  69.9313 166.2180 0007143 280.4750  79.5611 15.11962870 70614
CZ-4B R/B               
1 29507U 06046C   25321.54999378  .00006861  00000+0  36080-3 0  9996
2 29507  97.5774   1.7581 0032820 297.1783  62.6104 15.15524613 43052
CZ-2C R/B               
1 31114U 07010B   25321.77837985  .00000251  00000+0  13464-3 0  9993
2 31114  98.3966  75.6870 0057918 259.3610 100.1041 14.20195117963839
COSMO-SKYMED 1          
1 31598U 07023A   25321.83342450  .00004762  00000+0  43516-3 0  9990
2 31598  97.8843 147.0735 0001107  79.6594 280.4751 14.95510673998175
COSMOS 2428             
1 31792U 07029A   25321.81748267 -.00000154  00000+0 -56991-4 0  9991
2 31792  70.9369  78.2023 0002365  66.4889 293.6481 14.12888161948292
SL-16 R/B               
1 31793U 07029B   25321.66113704  .00000336  00000+0  19914-3 0  9990
2 31793  70.9776  47.8726 0002178 261.7726 248.1346 14.14813624949525
KORONAS-FOTON           
1 33504U 09003A   25321.62110647  .00014940  00000+0  36738-3 0  9994
2 33504  82.4337  32.1138 0011378 193.6954 166.3985 15.40432080928474
CZ-2C R/B               
1 37731U 11030B   25321.85562443  .00002718  00000+0  35120-3 0  9997
2 37731  97.8367 276.5210 0052972 356.1017  26.3680 14.80778569773540
