CCSDS_OMM_VERS = 2.0
CREATION_DATE  = 
ORIGINATOR     = 

OBJECT_NAME    = CZ-2D R/B
OBJECT_ID      = 2005-024B
CENTER_NAME    = EARTH
REF_FRAME      = TEME
TIME_SYSTEM    = UTC
MEAN_ELEMENT_THEORY = SGP/SGP4

EPOCH          = 2025-11-17T20:09:10.852416
MEAN_MOTION    = 15.51584847
ECCENTRICITY   = .0008153
INCLINATION    = 97.3652
RA_OF_ASC_NODE = 328.6645
ARG_OF_PERICENTER = 76.6065
MEAN_ANOMALY   = 283.6096

EPHEMERIS_TYPE = 0
CLASSIFICATION_TYPE = U
NORAD_CAT_ID   = 28738
ELEMENT_SET_NO = 999
REV_AT_EPOCH   = 12239
BSTAR          = .50501E-3
MEAN_MOTION_DOT = .29945E-3
MEAN_MOTION_DDOT = 0

CCSDS_OMM_VERS = 2.0
CREATION_DATE  = 
ORIGINATOR     = 

OBJECT_NAME    = ALOS (DAICHI)
OBJECT_ID      = 2006-002A
CENTER_NAME    = EARTH
REF_FRAME      = TEME
TIME_SYSTEM    = UTC
MEAN_ELEMENT_THEORY = SGP/SGP4

EPOCH          = 2025-11-17T20:10:57.698112
MEAN_MOTION    = 14.69377647
ECCENTRICITY   = .0000859
INCLINATION    = 98.1049
RA_OF_ASC_NODE = 273.5112
ARG_OF_PERICENTER = 58.4790
MEAN_ANOMALY   = 301.6499

EPHEMERIS_TYPE = 0
CLASSIFICATION_TYPE = U
NORAD_CAT_ID   = 28931
ELEMENT_SET_NO = 999
REV_AT_EPOCH   = 5705
BSTAR          = .4457E-3
MEAN_MOTION_DOT = .2586E-4
MEAN_MOTION_DDOT = 0

CCSDS_OMM_VERS = 2.0
CREATION_DATE  = 
ORIGINATOR     = 

OBJECT_NAME    = H-2A R/B
OBJECT_ID      = 2006-002B
CENTER_NAME    = EARTH
REF_FRAME      = TEME
TIME_SYSTEM    = UTC
MEAN_ELEMENT_THEORY = SGP/SGP4

EPOCH          = 2025-11-17T19:20:44.188800
MEAN_MOTION    = 15.13891133
ECCENTRICITY   = .0054422
INCLINATION    = 98.2298
RA_OF_ASC_NODE = 94.5347
ARG_OF_PERICENTER = 261.5541
MEAN_ANOMALY   = 97.9517

EPHEMERIS_TYPE = 0
CLASSIFICATION_TYPE = U
NORAD_CAT_ID   = 28932
ELEMENT_SET_NO = 999
REV_AT_EPOCH   = 7749
BSTAR          = .63985E-3
MEAN_MOTION_DOT = .11943E-3
MEAN_MOTION_DDOT = 0

CCSDS_OMM_VERS = 2.0
CREATION_DATE  = 
ORIGINATOR     = 

OBJECT_NAME    = RESURS-DK 1
OBJECT_ID      = 2006-021A
CENTER_NAME    = EARTH
REF_FRAME      = TEME
TIME_SYSTEM    = UTC
MEAN_ELEMENT_THEORY = SGP/SGP4

EPOCH          = 2025-11-17T19:46:45.454080
MEAN_MOTION    = 15.11962870
ECCENTRICITY   = .0007143
INCLINATION    = 69.9313
RA_OF_ASC_NODE = 166.2180
ARG_OF_PERICENTER = 280.4750
MEAN_ANOMALY   = 79.5611

EPHEMERIS_TYPE = 0
CLASSIFICATION_TYPE = U
NORAD_CAT_ID   = 29228
ELEMENT_SET_NO = 999
REV_AT_EPOCH   = 7061
BSTAR          = .20356E-3
MEAN_MOTION_DOT = .3395E-4
MEAN_MOTION_DDOT = 0

CCSDS_OMM_VERS = 2.0
CREATION_DATE  = 
ORIGINATOR     = 

OBJECT_NAME    = CZ-4B R/B
OBJECT_ID      = 2006-046C
CENTER_NAME    = EARTH
REF_FRAME      = TEME
TIME_SYSTEM    = UTC
MEAN_ELEMENT_THEORY = SGP/SGP4

EPOCH          = 2025-11-17T13:11:59.463456
MEAN_MOTION    = 15.15524613
ECCENTRICITY   = .00328198
INCLINATION    = 97.5774
RA_OF_ASC_NODE = 1.7581
ARG_OF_PERICENTER = 297.1783
MEAN_ANOMALY   = 62.6104

EPHEMERIS_TYPE = 0
CLASSIFICATION_TYPE = U
NORAD_CAT_ID   = 29507
ELEMENT_SET_NO = 999
REV_AT_EPOCH   = 4305
BSTAR          = .36079842E-3
MEAN_MOTION_DOT = .6861E-4
MEAN_MOTION_DDOT = 0

CCSDS_OMM_VERS = 2.0
CREATION_DATE  = 
ORIGINATOR     = 

OBJECT_NAME    = CZ-2C R/B
OBJECT_ID      = 2007-010B
CENTER_NAME    = EARTH
REF_FRAME      = TEME
TIME_SYSTEM    = UTC
MEAN_ELEMENT_THEORY = SGP/SGP4

EPOCH          = 2025-11-17T18:40:52.019040
MEAN_MOTION    = 14.20195117
ECCENTRICITY   = .0057918
INCLINATION    = 98.3966
RA_OF_ASC_NODE = 75.6870
ARG_OF_PERICENTER = 259.3610
MEAN_ANOMALY   = 100.1041

EPHEMERIS_TYPE = 0
CLASSIFICATION_TYPE = U
NORAD_CAT_ID   = 31114
ELEMENT_SET_NO = 999
REV_AT_EPOCH   = 96383
BSTAR          = .13464E-3
MEAN_MOTION_DOT = .251E-5
MEAN_MOTION_DDOT = 0

CCSDS_OMM_VERS = 2.0
CREATION_DATE  = 
ORIGINATOR     = 

OBJECT_NAME    = COSMO-SKYMED 1
OBJECT_ID      = 2007-023A
CENTER_NAME    = EARTH
REF_FRAME      = TEME
TIME_SYSTEM    = UTC
MEAN_ELEMENT_THEORY = SGP/SGP4

EPOCH          = 2025-11-17T20:00:07.876800
MEAN_MOTION    = 14.95510673
ECCENTRICITY   = .0001107
INCLINATION    = 97.8843
RA_OF_ASC_NODE = 147.0735
ARG_OF_PERICENTER = 79.6594
MEAN_ANOMALY   = 280.4751

EPHEMERIS_TYPE = 0
CLASSIFICATION_TYPE = U
NORAD_CAT_ID   = 31598
ELEMENT_SET_NO = 999
REV_AT_EPOCH   = 99817
BSTAR          = .43516E-3
MEAN_MOTION_DOT = .4762E-4
MEAN_MOTION_DDOT = 0

CCSDS_OMM_VERS = 2.0
CREATION_DATE  = 
ORIGINATOR     = 

OBJECT_NAME    = COSMOS 2428
OBJECT_ID      = 2007-029A
CENTER_NAME    = EARTH
REF_FRAME      = TEME
TIME_SYSTEM    = UTC
MEAN_ELEMENT_THEORY = SGP/SGP4

EPOCH          = 2025-11-17T19:37:10.502688
MEAN_MOTION    = 14.12888161
ECCENTRICITY   = .0002365
INCLINATION    = 70.9369
RA_OF_ASC_NODE = 78.2023
ARG_OF_PERICENTER = 66.4889
MEAN_ANOMALY   = 293.6481

EPHEMERIS_TYPE = 0
CLASSIFICATION_TYPE = U
NORAD_CAT_ID   = 31792
ELEMENT_SET_NO = 999
REV_AT_EPOCH   = 94829
BSTAR          = -.56991E-4
MEAN_MOTION_DOT = -.154E-5
MEAN_MOTION_DDOT = 0

CCSDS_OMM_VERS = 2.0
CREATION_DATE  = 
ORIGINATOR     = 

OBJECT_NAME    = SL-16 R/B
OBJECT_ID      = 2007-029B
CENTER_NAME    = EARTH
REF_FRAME      = TEME
TIME_SYSTEM    = UTC
MEAN_ELEMENT_THEORY = SGP/SGP4

EPOCH          = 2025-11-17T15:52:02.240256
MEAN_MOTION    = 14.14813624
ECCENTRICITY   = .00021785
INCLINATION    = 70.9776
RA_OF_ASC_NODE = 47.8726
ARG_OF_PERICENTER = 261.7726
MEAN_ANOMALY   = 248.1346

EPHEMERIS_TYPE = 0
CLASSIFICATION_TYPE = U
NORAD_CAT_ID   = 31793
ELEMENT_SET_NO = 999
REV_AT_EPOCH   = 94952
BSTAR          = .19914445E-3
MEAN_MOTION_DOT = .336E-5
MEAN_MOTION_DDOT = 0

CCSDS_OMM_VERS = 2.0
CREATION_DATE  = 
ORIGINATOR     = 

OBJECT_NAME    = KORONAS-FOTON
OBJECT_ID      = 2009-003A
CENTER_NAME    = EARTH
REF_FRAME      = TEME
TIME_SYSTEM    = UTC
MEAN_ELEMENT_THEORY = SGP/SGP4

EPOCH          = 2025-11-17T14:54:23.599008
MEAN_MOTION    = 15.40432080
ECCENTRICITY   = .00113776
INCLINATION    = 82.4337
RA_OF_ASC_NODE = 32.1138
ARG_OF_PERICENTER = 193.6954
MEAN_ANOMALY   = 166.3985

EPHEMERIS_TYPE = 0
CLASSIFICATION_TYPE = U
NORAD_CAT_ID   = 33504
ELEMENT_SET_NO = 999
REV_AT_EPOCH   = 92847
BSTAR          = .36737629E-3
MEAN_MOTION_DOT = .1494E-3
MEAN_MOTION_DDOT = 0

CCSDS_OMM_VERS = 2.0
CREATION_DATE  = 
ORIGINATOR     = 

OBJECT_NAME    = CZ-2C R/B
OBJECT_ID      = 2011-030B
CENTER_NAME    = EARTH
REF_FRAME      = TEME
TIME_SYSTEM    = UTC
MEAN_ELEMENT_THEORY = SGP/SGP4

EPOCH          = 2025-11-17T20:32:05.950752
MEAN_MOTION    = 14.80778569
ECCENTRICITY   = .0052972
INCLINATION    = 97.8367
RA_OF_ASC_NODE = 276.5210
ARG_OF_PERICENTER = 356.1017
MEAN_ANOMALY   = 26.3680

EPHEMERIS_TYPE = 0
CLASSIFICATION_TYPE = U
NORAD_CAT_ID   = 37731
ELEMENT_SET_NO = 999
REV_AT_EPOCH   = 77354
BSTAR          = .3512E-3
MEAN_MOTION_DOT = .2718E-4
MEAN_MOTION_DDOT = 0

